[{"OBJECT_NAME":"ONEWEB-0058","OBJECT_ID":"2020-008AG","EPOCH":"2025-08-14T09:45:00.156384","MEAN_MOTION":13.10371453,"ECCENTRICITY":0.000181,"INCLINATION":87.8776,"RA_OF_ASC_NODE":97.4756,"ARG_OF_PERICENTER":75.5525,"MEAN_ANOMALY":284.5803,"EPHEMERIS_TYPE":0,"CLASSIFICATION_TYPE":"U","NORAD_CAT_ID":45161,"ELEMENT_SET_NO":999,"REV_AT_EPOCH":26824,"BSTAR":0.0014621,"MEAN_MOTION_DOT":5.23e-6,"MEAN_MOTION_DDOT":0},{"OBJECT_NAME":"ONEWEB-0059","OBJECT_ID":"2020-008AH","EPOCH":"2025-08-14T09:40:01.201152","MEAN_MOTION":13.10372325,"ECCENTRICITY":0.0001786,"INCLINATION":87.8779,"RA_OF_ASC_NODE":97.4758,"ARG_OF_PERICENTER":76.1498,"MEAN_ANOMALY":283.9828,"EPHEMERIS_TYPE":0,"CLASSIFICATION_TYPE":"U","NORAD_CAT_ID":45162,"ELEMENT_SET_NO":999,"REV_AT_EPOCH":26814,"BSTAR":0.0017725,"MEAN_MOTION_DOT":6.31e-6,"MEAN_MOTION_DDOT":0},{"OBJECT_NAME":"ONEWEB-0062","OBJECT_ID":"2020-008AJ","EPOCH":"2025-08-14T08:27:05.229504","MEAN_MOTION":13.10370036,"ECCENTRICITY":0.0001451,"INCLINATION":87.8772,"RA_OF_ASC_NODE":97.4648,"ARG_OF_PERICENTER":73.1981,"MEAN_ANOMALY":286.9306,"EPHEMERIS_TYPE":0,"CLASSIFICATION_TYPE":"U","NORAD_CAT_ID":45163,"ELEMENT_SET_NO":999,"REV_AT_EPOCH":26800,"BSTAR":-0.00099688,"MEAN_MOTION_DOT":-3.35e-6,"MEAN_MOTION_DDOT":0},{"OBJECT_NAME":"ONEWEB-0065","OBJECT_ID":"2020-008AK","EPOCH":"2025-08-14T09:48:21.852864","MEAN_MOTION":13.10369648,"ECCENTRICITY":0.0001844,"INCLINATION":87.8777,"RA_OF_ASC_NODE":97.4787,"ARG_OF_PERICENTER":92.1918,"MEAN_ANOMALY":267.942,"EPHEMERIS_TYPE":0,"CLASSIFICATION_TYPE":"U","NORAD_CAT_ID":45164,"ELEMENT_SET_NO":999,"REV_AT_EPOCH":26770,"BSTAR":0.0014339,"MEAN_MOTION_DOT":5.13e-6,"MEAN_MOTION_DDOT":0},{"OBJECT_NAME":"ONEWEB-0066","OBJECT_ID":"2020-020A","EPOCH":"2025-08-14T12:14:21.066720","MEAN_MOTION":13.11419842,"ECCENTRICITY":0.0002006,"INCLINATION":87.8793,"RA_OF_ASC_NODE":82.1787,"ARG_OF_PERICENTER":81.8068,"MEAN_ANOMALY":278.3287,"EPHEMERIS_TYPE":0,"CLASSIFICATION_TYPE":"U","NORAD_CAT_ID":45424,"ELEMENT_SET_NO":999,"REV_AT_EPOCH":26248,"BSTAR":0.0014061,"MEAN_MOTION_DOT":5.11e-6,"MEAN_MOTION_DDOT":0},{"OBJECT_NAME":"ONEWEB-0067","OBJECT_ID":"2020-020B","EPOCH":"2025-08-14T13:08:14.157312","MEAN_MOTION":13.11417826,"ECCENTRICITY":0.0001944,"INCLINATION":87.8781,"RA_OF_ASC_NODE":82.0806,"ARG_OF_PERICENTER":83.6228,"MEAN_ANOMALY":276.5122,"EPHEMERIS_TYPE":0,"CLASSIFICATION_TYPE":"U","NORAD_CAT_ID":45425,"ELEMENT_SET_NO":999,"REV_AT_EPOCH":26254,"BSTAR":-0.0015629,"MEAN_MOTION_DOT":-5.41e-6,"MEAN_MOTION_DDOT":0},{"OBJECT_NAME":"ONEWEB-0080","OBJECT_ID":"2020-020C","EPOCH":"2025-08-14T07:51:53.820864","MEAN_MOTION":13.11416749,"ECCENTRICITY":0.0001805,"INCLINATION":87.8796,"RA_OF_ASC_NODE":82.216,"ARG_OF_PERICENTER":71.1733,"MEAN_ANOMALY":288.959,"EPHEMERIS_TYPE":0,"CLASSIFICATION_TYPE":"U","NORAD_CAT_ID":45426,"ELEMENT_SET_NO":999,"REV_AT_EPOCH":26248,"BSTAR":-0.0014787,"MEAN_MOTION_DOT":-5.11e-6,"MEAN_MOTION_DDOT":0},{"OBJECT_NAME":"ONEWEB-0090","OBJECT_ID":"2020-020D","EPOCH":"2025-08-14T11:59:43.265184","MEAN_MOTION":13.11418311,"ECCENTRICITY":0.0001725,"INCLINATION":87.8792,"RA_OF_ASC_NODE":82.1828,"ARG_OF_PERICENTER":82.1489,"MEAN_ANOMALY":277.9835,"EPHEMERIS_TYPE":0,"CLASSIFICATION_TYPE":"U","NORAD_CAT_ID":45427,"ELEMENT_SET_NO":999,"REV_AT_EPOCH":26247,"BSTAR":0.00069909,"MEAN_MOTION_DOT":2.6e-6,"MEAN_MOTION_DDOT":0},{"OBJECT_NAME":"ONEWEB-0061","OBJECT_ID":"2020-020E","EPOCH":"2025-08-14T12:45:53.458272","MEAN_MOTION":13.11415668,"ECCENTRICITY":0.0001784,"INCLINATION":87.8793,"RA_OF_ASC_NODE":82.1578,"ARG_OF_PERICENTER":81.6357,"MEAN_ANOMALY":278.4973,"EPHEMERIS_TYPE":0,"CLASSIFICATION_TYPE":"U","NORAD_CAT_ID":45428,"ELEMENT_SET_NO":999,"REV_AT_EPOCH":26243,"BSTAR":2.7452e-5,"MEAN_MOTION_DOT":2.2e-7,"MEAN_MOTION_DDOT":0},{"OBJECT_NAME":"ONEWEB-0081","OBJECT_ID":"2020-020F","EPOCH":"2025-08-14T12:19:15.639744","MEAN_MOTION":13.11417899,"ECCENTRICITY":0.0001981,"INCLINATION":87.8787,"RA_OF_ASC_NODE":82.1811,"ARG_OF_PERICENTER":83.0915,"MEAN_ANOMALY":277.0438,"EPHEMERIS_TYPE":0,"CLASSIFICATION_TYPE":"U","NORAD_CAT_ID":45429,"ELEMENT_SET_NO":999,"REV_AT_EPOCH":26254,"BSTAR":0.0013651,"MEAN_MOTION_DOT":4.97e-6,"MEAN_MOTION_DDOT":0},{"OBJECT_NAME":"ONEWEB-0069","OBJECT_ID":"2020-020G","EPOCH":"2025-08-14T08:23:38.854464","MEAN_MOTION":13.11417462,"ECCENTRICITY":0.0001881,"INCLINATION":87.8794,"RA_OF_ASC_NODE":82.207,"ARG_OF_PERICENTER":85.235,"MEAN_ANOMALY":274.8993,"EPHEMERIS_TYPE":0,"CLASSIFICATION_TYPE":"U","NORAD_CAT_ID":45430,"ELEMENT_SET_NO":999,"REV_AT_EPOCH":26245,"BSTAR":0.00097303,"MEAN_MOTION_DOT":3.58e-6,"MEAN_MOTION_DDOT":0},{"OBJECT_NAME":"ONEWEB-0031","OBJECT_ID":"2020-020H","EPOCH":"2025-08-14T13:12:56.067552","MEAN_MOTION":13.11415688,"ECCENTRICITY":0.0001572,"INCLINATION":87.8789,"RA_OF_ASC_NODE":82.1964,"ARG_OF_PERICENTER":77.9831,"MEAN_ANOMALY":282.1473,"EPHEMERIS_TYPE":0,"CLASSIFICATION_TYPE":"U","NORAD_CAT_ID":45431,"ELEMENT_SET_NO":999,"REV_AT_EPOCH":26246,"BSTAR":-0.0014706,"MEAN_MOTION_DOT":-5.08e-6,"MEAN_MOTION_DDOT":0},{"OBJECT_NAME":"ONEWEB-0027","OBJECT_ID":"2020-020J","EPOCH":"2025-08-14T12:34:11.032320","MEAN_MOTION":13.17647782,"ECCENTRICITY":0.0001386,"INCLINATION":87.9033,"RA_OF_ASC_NODE":66.863,"ARG_OF_PERICENTER":87.9462,"MEAN_ANOMALY":272.1828,"EPHEMERIS_TYPE":0,"CLASSIFICATION_TYPE":"U","NORAD_CAT_ID":45432,"ELEMENT_SET_NO":999,"REV_AT_EPOCH":26597,"BSTAR":0.00011,"MEAN_MOTION_DOT":5.6e-7,"MEAN_MOTION_DDOT":0},{"OBJECT_NAME":"ONEWEB-0064","OBJECT_ID":"2020-020K","EPOCH":"2025-08-14T13:10:29.499456","MEAN_MOTION":13.1141571,"ECCENTRICITY":0.0001592,"INCLINATION":87.879,"RA_OF_ASC_NODE":82.1885,"ARG_OF_PERICENTER":82.0565,"MEAN_ANOMALY":278.0744,"EPHEMERIS_TYPE":0,"CLASSIFICATION_TYPE":"U","NORAD_CAT_ID":45433,"ELEMENT_SET_NO":999,"REV_AT_EPOCH":26249,"BSTAR":-0.0014569,"MEAN_MOTION_DOT":-5.04e-6,"MEAN_MOTION_DDOT":0},{"OBJECT_NAME":"ONEWEB-0018","OBJECT_ID":"2020-020L","EPOCH":"2025-08-14T08:27:18.717408","MEAN_MOTION":13.11417287,"ECCENTRICITY":0.0001808,"INCLINATION":87.8788,"RA_OF_ASC_NODE":82.2118,"ARG_OF_PERICENTER":81.8668,"MEAN_ANOMALY":278.2665,"EPHEMERIS_TYPE":0,"CLASSIFICATION_TYPE":"U","NORAD_CAT_ID":45434,"ELEMENT_SET_NO":999,"REV_AT_EPOCH":26241,"BSTAR":0.0011626,"MEAN_MOTION_DOT":4.25e-6,"MEAN_MOTION_DDOT":0},{"OBJECT_NAME":"ONEWEB-0083","OBJECT_ID":"2020-020M","EPOCH":"2025-08-14T08:12:38.089728","MEAN_MOTION":13.11419496,"ECCENTRICITY":0.0001682,"INCLINATION":87.8796,"RA_OF_ASC_NODE":82.2009,"ARG_OF_PERICENTER":83.1452,"MEAN_ANOMALY":276.9867,"EPHEMERIS_TYPE":0,"CLASSIFICATION_TYPE":"U","NORAD_CAT_ID":45435,"ELEMENT_SET_NO":999,"REV_AT_EPOCH":26245,"BSTAR":0.00018232,"MEAN_MOTION_DOT":7.7e-7,"MEAN_MOTION_DDOT":0},{"OBJECT_NAME":"ONEWEB-0095","OBJECT_ID":"2020-020N","EPOCH":"2025-08-14T08:00:37.088640","MEAN_MOTION":13.11407583,"ECCENTRICITY":0.000144,"INCLINATION":87.8788,"RA_OF_ASC_NODE":82.225,"ARG_OF_PERICENTER":109.9354,"MEAN_ANOMALY":250.193,"EPHEMERIS_TYPE":0,"CLASSIFICATION_TYPE":"U","NORAD_CAT_ID":45436,"ELEMENT_SET_NO":999,"REV_AT_EPOCH":26245,"BSTAR":-0.00098698,"MEAN_MOTION_DOT":-3.37e-6,"MEAN_MOTION_DDOT":0}]
