ONEWEB-0058             
1 45161U 20008AG  25226.40625181  .00000523  00000+0  14621-2 0  9996
2 45161  87.8776  97.4756 0001810  75.5525 284.5803 13.10371453268249
ONEWEB-0059             
1 45162U 20008AH  25226.40279168  .00000631  00000+0  17725-2 0  9995
2 45162  87.8779  97.4758 0001786  76.1498 283.9828 13.10372325268141
ONEWEB-0062             
1 45163U 20008AJ  25226.35214386 -.00000335  00000+0 -99688-3 0  9993
2 45163  87.8772  97.4648 0001451  73.1981 286.9306 13.10370036268002
ONEWEB-0065             
1 45164U 20008AK  25226.40858626  .00000513  00000+0  14339-2 0  9996
2 45164  87.8777  97.4787 0001844  92.1918 267.9420 13.10369648267708
ONEWEB-0066             
1 45424U 20020A   25226.50996605  .00000511  00000+0  14061-2 0  9990
2 45424  87.8793  82.1787 0002006  81.8068 278.3287 13.11419842262488
ONEWEB-0067             
1 45425U 20020B   25226.54738608 -.00000541  00000+0 -15629-2 0  9998
2 45425  87.8781  82.0806 0001944  83.6228 276.5122 13.11417826262540
ONEWEB-0080             
1 45426U 20020C   25226.32770626 -.00000511  00000+0 -14787-2 0  9992
2 45426  87.8796  82.2160 0001805  71.1733 288.9590 13.11416749262483
ONEWEB-0090             
1 45427U 20020D   25226.49980631  .00000260  00000+0  69909-3 0  9996
2 45427  87.8792  82.1828 0001725  82.1489 277.9835 13.11418311262477
ONEWEB-0061             
1 45428U 20020E   25226.53186873  .00000022  00000+0  27452-4 0  9992
2 45428  87.8793  82.1578 0001784  81.6357 278.4973 13.11415668262431
ONEWEB-0081             
1 45429U 20020F   25226.51337546  .00000497  00000+0  13651-2 0  9996
2 45429  87.8787  82.1811 0001981  83.0915 277.0438 13.11417899262541
ONEWEB-0069             
1 45430U 20020G   25226.34975526  .00000358  00000+0  97303-3 0  9998
2 45430  87.8794  82.2070 0001881  85.2350 274.8993 13.11417462262452
ONEWEB-0031             
1 45431U 20020H   25226.55064893 -.00000508  00000+0 -14706-2 0  9992
2 45431  87.8789  82.1964 0001572  77.9831 282.1473 13.11415688262461
ONEWEB-0027             
1 45432U 20020J   25226.52373880  .00000056  00000+0  11000-3 0  9990
2 45432  87.9033  66.8630 0001386  87.9462 272.1828 13.17647782265978
ONEWEB-0064             
1 45433U 20020K   25226.54895254 -.00000504  00000+0 -14569-2 0  9999
2 45433  87.8790  82.1885 0001592  82.0565 278.0744 13.11415710262494
ONEWEB-0018             
1 45434U 20020L   25226.35229997  .00000425  00000+0  11626-2 0  9995
2 45434  87.8788  82.2118 0001808  81.8668 278.2665 13.11417287262410
ONEWEB-0083             
1 45435U 20020M   25226.34210752  .00000077  00000+0  18232-3 0  9998
2 45435  87.8796  82.2009 0001682  83.1452 276.9867 13.11419496262452
ONEWEB-0095             
1 45436U 20020N   25226.33376260 -.00000337  00000+0 -98698-3 0  9990
2 45436  87.8788  82.2250 0001440 109.9354 250.1930 13.11407583262451
